NORAD_CAT_ID,OBJECT_NAME,OBJECT_TYPE,EPOCH,MEAN_MOTION,ECCENTRICITY,INCLINATION,RA_OF_ASC_NODE,ARG_OF_PERICENTER,MEAN_ANOMALY,BSTAR,MEAN_MOTION_DOT,MEAN_MOTION_DDOT,TLE_LINE0,TLE_LINE1,TLE_LINE2,SEMIMAJOR_AXIS,PERIOD,APOGEE,PERIGEE,DECAYED
52990.0,STARLINK-4286,PAYLOAD,2022-10-25 14:00:01,15.08814916,0.0001921,53.2165,230.7755,37.378,201.2574,0.0009834,0.00015387,0.0,0 STARLINK-4286,1 52990U 22076E   22298.58334491  .00015387  00000-0  98340-3 0  9993,2 52990  53.2165 230.7755 0001921  37.3780 201.2574 15.08814916  1307,6917.956999999999,95.439,541.151,538.493,0.0
52990.0,STARLINK-4286,PAYLOAD,2022-10-25 22:00:01,15.08844213,0.0001971,53.2165,229.2796,40.7308,209.5338,-0.00047408,-7.826e-05,0.0,0 STARLINK-4286,1 52990U 22076E   22298.91668981 -.00007826  00000-0 -47408-3 0  9994,2 52990  53.2165 229.2796 0001971  40.7308 209.5338 15.08844213 17370,6917.868,95.437,541.096,538.369,0.0
52990.0,STARLINK-4286,PAYLOAD,2022-10-26 14:00:01,15.08847092,0.0002036,53.2167,226.2866,40.4951,232.9046,0.00061225,9.471e-05,0.0,0 STARLINK-4286,1 52990U 22076E   22299.58334491  .00009471  00000-0  61225-3 0  9993,2 52990  53.2167 226.2866 0002036  40.4951 232.9046 15.08847092  1301,6917.859,95.437,541.132,538.315,0.0
52990.0,STARLINK-4286,PAYLOAD,2022-10-26 22:00:00,15.08861656,0.000216,53.2167,224.7907,43.8943,241.1125,-0.0019998,-0.00031994,0.0,0 STARLINK-4286,1 52990U 22076E   22299.91667824 -.00031994  00000-0 -19998-2 0  9995,2 52990  53.2167 224.7907 0002160  43.8943 241.1125 15.08861656 17529,6917.814,95.436,541.173,538.185,0.0
52990.0,STARLINK-4286,PAYLOAD,2022-10-27 08:00:01,15.08894074,0.0002323,53.2164,222.918,41.4749,348.048,-0.0016675999999999,-0.0002677,0.0,0 STARLINK-4286,1 52990U 22076E   22300.33334491 -.00026770  00000-0 -16676-2 0  9991,2 52990  53.2164 222.9180 0002323  41.4749 348.0480 15.08894074 17585,6917.715,95.434,541.187,537.9730000000002,0.0
52990.0,STARLINK-4286,PAYLOAD,2022-10-27 14:00:01,15.08869096,0.0002068,53.2168,221.7975,43.8421,264.4868,-0.0027497,-0.0004381999999999,0.0,0 STARLINK-4286,1 52990U 22076E   22300.58335648 -.00043820  00000-0 -27497-2 0  9991,2 52990  53.2168 221.7975 0002068  43.8421 264.4868 15.08869096  1307,6917.791,95.436,541.087,538.226,0.0
52990.0,STARLINK-4286,PAYLOAD,2022-10-27 22:00:00,15.0886197,0.0002041,53.2169,220.3017,42.594,277.2781,-0.0032273,-0.00051317,0.0,0 STARLINK-4286,1 52990U 22076E   22300.91667824 -.00051317  00000-0 -32273-2 0  9990,2 52990  53.2169 220.3017 0002041  42.5940 277.2781 15.08861970  1302,6917.813,95.436,541.09,538.266,0.0
52990.0,STARLINK-4286,PAYLOAD,2022-10-28 08:00:01,15.08831791,0.0002154999999999,53.2165,218.432,37.3221,27.1103,0.00087821,0.00013713,0.0,0 STARLINK-4286,1 52990U 22076E   22301.33335648  .00013713  00000-0  87821-3 0  9999,2 52990  53.2165 218.4320 0002155  37.3221  27.1103 15.08831791 17735,6917.905,95.438,541.261,538.28,0.0
52990.0,STARLINK-4286,PAYLOAD,2022-10-28 14:00:01,15.0881947,0.0001986,53.2168,217.3084,41.442,301.6898,0.0029159,0.00046399,0.0,0 STARLINK-4286,1 52990U 22076E   22301.58335648  .00046399  00000-0  29159-2 0  9991,2 52990  53.2168 217.3084 0001986  41.4420 301.6898 15.08819470  1308,6917.943,95.439,541.182,538.434,0.0
52990.0,STARLINK-4286,PAYLOAD,2022-10-28 22:00:01,15.08880922,0.0002032,53.2168,215.8128,41.0117,313.7058,-0.003853,-0.00061158,0.0,0 STARLINK-4286,1 52990U 22076E   22301.91668981 -.00061158  00000-0 -38530-2 0  9992,2 52990  53.2168 215.8128 0002032  41.0117 313.7058 15.08880922  1304,6917.755,95.435,541.026,538.215,0.0
52990.0,STARLINK-4286,PAYLOAD,2022-10-29 10:00:00,15.08858941,0.0001972,53.2164,213.5683,37.2912,154.7759,-0.0033235,-0.00052823,0.0,0 STARLINK-4286,1 52990U 22076E   22302.41667824 -.00052823  00000-0 -33235-2 0  9999,2 52990  53.2164 213.5683 0001972  37.2912 154.7759 15.08858941 17903,6917.821999999999,95.436,541.052,538.323,0.0
52990.0,STARLINK-4286,PAYLOAD,2022-10-29 12:00:00,15.08832363,0.0001906,53.2166,213.1938,38.185,246.7898,-0.00037133,-6.192e-05,0.0,0 STARLINK-4286,1 52990U 22076E   22302.50001157 -.00006192  00000-0 -37133-3 0  9990,2 52990  53.2166 213.1938 0001906  38.1850 246.7898 15.08832363  1305,6917.904,95.438,541.087,538.45,0.0
52990.0,STARLINK-4286,PAYLOAD,2022-10-29 22:00:01,15.08883179,0.0001916,53.2165,211.3239,37.6944,351.8725,-0.0032941,-0.00052395,0.0,0 STARLINK-4286,1 52990U 22076E   22302.91668981 -.00052395  00000-0 -32941-2 0  9996,2 52990  53.2165 211.3239 0001916  37.6944 351.8725 15.08883179  1305,6917.748000000001,95.435,540.939,538.288,0.0
52990.0,STARLINK-4286,PAYLOAD,2022-10-30 00:00:00,15.08869329,0.0001989,53.2163,210.9502,37.0038,85.412,-0.0025556999999999,-0.00040766,0.0,0 STARLINK-4286,1 52990U 22076E   22303.00001157 -.00040766  00000-0 -25557-2 0  9997,2 52990  53.2163 210.9502 0001989  37.0038  85.4120 15.08869329 17991,6917.791,95.436,541.0319999999998,538.28,0.0
52990.0,STARLINK-4286,PAYLOAD,2022-10-30 14:00:01,15.0880994,0.0001915,53.216,208.3303,42.898,9.7636,0.0025166,0.00039958,0.0,0 STARLINK-4286,1 52990U 22076E   22303.58334491  .00039958  00000-0  25166-2 0  9995,2 52990  53.2160 208.3303 0001915  42.8980   9.7636 15.08809940  1309,6917.972,95.439,541.1619999999998,538.512,0.0
52990.0,STARLINK-4286,PAYLOAD,2022-10-30 22:00:01,15.08839061,0.0002073,53.216,206.8351,44.3343,19.9695,-0.0013925,-0.00022381,0.0,0 STARLINK-4286,1 52990U 22076E   22303.91668981 -.00022381  00000-0 -13925-2 0  9990,2 52990  53.2160 206.8351 0002073  44.3343  19.9695 15.08839061  1306,6917.8830000000025,95.438,541.182,538.314,0.0
52990.0,STARLINK-4286,PAYLOAD,2022-10-31 14:00:01,15.08794907,0.0001911,53.2155,203.8413,45.0049,42.4065,0.0038799,0.00061927,0.0,0 STARLINK-4286,1 52990U 22076E   22304.58334491  .00061927  00000-0  38799-2 0  9993,2 52990  53.2155 203.8413 0001911  45.0049  42.4065 15.08794907  1308,6918.018,95.44,541.205,538.561,0.0
52990.0,STARLINK-4286,PAYLOAD,2022-10-31 22:00:01,15.0885749,0.0002018,53.2155,202.3461,43.8605,55.1798,-0.0032551999999999,-0.00051749,0.0,0 STARLINK-4286,1 52990U 22076E   22304.91668981 -.00051749  00000-0 -32552-2 0  9998,2 52990  53.2155 202.3461 0002018  43.8605  55.1798 15.08857490  1309,6917.8269999999975,95.436,541.0880000000002,538.2959999999998,0.0
52990.0,STARLINK-4286,PAYLOAD,2022-11-01 00:00:02,15.08837187,0.0002064,53.2154,201.9724,42.4363,149.5092,-0.0012504,-0.00020132,0.0,0 STARLINK-4286,1 52990U 22076E   22305.00002315 -.00020132  00000-0 -12504-2 0  9999,2 52990  53.2154 201.9724 0002064  42.4363 149.5092 15.08837187 18294,6917.889,95.438,541.182,538.326,0.0
52990.0,STARLINK-4286,PAYLOAD,2022-11-01 14:00:01,15.08833686,0.0001943,53.2152,199.3522,45.6356,76.5291,0.0010902999999999,0.00017104,0.0,0 STARLINK-4286,1 52990U 22076E   22305.58334491  .00017104  00000-0  10903-2 0  9999,2 52990  53.2152 199.3522 0001943  45.6356  76.5291 15.08833686 18380,6917.9,95.438,541.109,538.4209999999998,0.0
52990.0,STARLINK-4286,PAYLOAD,2022-11-01 22:00:00,15.08848243,0.0002112,53.2153,197.857,45.3659,88.3957,-0.0015447,-0.00024794,0.0,0 STARLINK-4286,1 52990U 22076E   22305.91667824 -.00024794  00000-0 -15447-2 0  9998,2 52990  53.2153 197.8570 0002112  45.3659  88.3957 15.08848243  1308,6917.855,95.437,541.181,538.259,0.0
52990.0,STARLINK-4286,PAYLOAD,2022-11-02 06:00:00,15.08843241,0.0002098,53.2152,196.3609,40.4958,104.8598,-0.0033538,-0.00053276,0.0,0 STARLINK-4286,1 52990U 22076E   22306.25001157 -.00053276  00000-0 -33538-2 0  9995,2 52990  53.2152 196.3609 0002098  40.4958 104.8598 15.08843241 18480,6917.87,95.437,541.187,538.284,0.0
52990.0,STARLINK-4286,PAYLOAD,2022-11-02 14:00:01,15.08777998,0.0001859,53.2155,194.8607,44.4053,112.5359,0.0036856,0.00058758,0.0,0 STARLINK-4286,1 52990U 22076E   22306.58334491  .00058758  00000-0  36856-2 0  9995,2 52990  53.2155 194.8607 0001859  44.4053 112.5359 15.08777998  1307,6918.07,95.441,541.221,538.649,0.0
52990.0,STARLINK-4286,PAYLOAD,2022-11-02 18:00:02,15.08813919,0.0001895,53.2159,194.1106,47.26,295.5075,0.0010493,0.00016439,0.0,0 STARLINK-4286,1 52990U 22076E   22306.75002315  .00016439  00000-0  10493-2 0  9990,2 52990  53.2159 194.1106 0001895  47.2600 295.5075 15.08813919 18553,6917.96,95.439,541.136,538.514,0.0
52990.0,STARLINK-4286,PAYLOAD,2022-11-03 02:01:34,15.08826645,0.0002116,53.2171,192.6132,48.5296,311.5878,-5.8201e-05,-1.214e-05,0.0,0 STARLINK-4286,1 52990U 22076E   22307.08442570 -.00001214  00000-0 -58201-4 0  9996,2 52990  53.2171 192.6132 0002116  48.5296 311.5878 15.08826645 18607,6917.920999999999,95.438,541.25,538.322,0.0
52990.0,STARLINK-4286,PAYLOAD,2022-11-03 09:58:29,15.08834426,0.0002165,53.2179,191.1261,51.54600000000001,308.5726,1.3903e-05,-6.7e-07,0.0,0 STARLINK-4286,1 52990U 22076E   22307.41562090 -.00000067  00000-0  13903-4 0  9997,2 52990  53.2179 191.1261 0002165  51.5460 308.5726 15.08834426 18652,6917.897,95.438,541.26,538.265,0.0
52990.0,STARLINK-4286,PAYLOAD,2022-11-03 16:20:01,15.08838448,0.0002267,53.2182,189.9391,38.503,321.6123,9.255e-05,1.185e-05,0.0,0 STARLINK-4286,1 52990U 22076E   22307.68057632  .00001185  00000-0  92550-4 0  9993,2 52990  53.2182 189.9391 0002267  38.5030 321.6123 15.08838448 18224,6917.885,95.438,541.318,538.182,0.0
52990.0,STARLINK-4286,PAYLOAD,2022-11-04 01:52:19,15.08854031,0.0002287,53.2162,188.1535,50.2562,309.8632,0.00020698,3.009e-05,0.0,0 STARLINK-4286,1 52990U 22076E   22308.07800089  .00003009  00000-0  20698-3 0  9999,2 52990  53.2162 188.1535 0002287  50.2562 309.8632 15.08854031 18753,6917.8380000000025,95.437,541.285,538.12,0.0
52990.0,STARLINK-4286,PAYLOAD,2022-11-04 16:10:47,15.08839635,0.000219,53.214,185.4781,44.6776,315.4392,0.0002815,4.195e-05,0.0,0 STARLINK-4286,1 52990U 22076E   22308.67416604  .00004195  00000-0  28150-3 0  9999,2 52990  53.2140 185.4781 0002190  44.6776 315.4392 15.08839635 18848,6917.882,95.438,541.262,538.231,0.0
